[{"OBJECT_NAME":"AAC-AIS-SAT3","OBJECT_ID":"2023-174DJ","EPOCH":"2026-03-09T21:54:37.399104","MEAN_MOTION":14.84090722,"ECCENTRICITY":0.00050238,"INCLINATION":97.6364,"RA_OF_ASC_NODE":121.8384,"ARG_OF_PERICENTER":288.7792,"MEAN_ANOMALY":71.2877,"EPHEMERIS_TYPE":0,"CLASSIFICATION_TYPE":"U","NORAD_CAT_ID":58997,"ELEMENT_SET_NO":999,"REV_AT_EPOCH":12642,"BSTAR":0.00054806577,"MEAN_MOTION_DOT":4.524e-5,"MEAN_MOTION_DDOT":0},{"OBJECT_NAME":"SL-16 R\/B","OBJECT_ID":"1999-039B","EPOCH":"2026-03-09T18:24:22.966272","MEAN_MOTION":14.8173167,"ECCENTRICITY":0.00135065,"INCLINATION":97.9966,"RA_OF_ASC_NODE":127.8636,"ARG_OF_PERICENTER":255.8246,"MEAN_ANOMALY":104.1466,"EPHEMERIS_TYPE":0,"CLASSIFICATION_TYPE":"U","NORAD_CAT_ID":25861,"ELEMENT_SET_NO":999,"REV_AT_EPOCH":43687,"BSTAR":9.8724714e-5,"MEAN_MOTION_DOT":7.25e-6,"MEAN_MOTION_DDOT":0}]
